SZ-21 MODULE            
1 66515U 25246C   25329.46659177  .00030333  00000+0  34921-3 0  9991
2 66515  41.4756 121.3198 0004905 147.7697 212.3443 15.61308033  1747
