CCSDS_OMM_VERS = 2.0
CREATION_DATE  = 
ORIGINATOR     = 

OBJECT_NAME    = SZ-21 MODULE
OBJECT_ID      = 2025-246C
CENTER_NAME    = EARTH
REF_FRAME      = TEME
TIME_SYSTEM    = UTC
MEAN_ELEMENT_THEORY = SGP/SGP4

EPOCH          = 2025-11-25T11:11:53.528928
MEAN_MOTION    = 15.61308033
ECCENTRICITY   = .0004905
INCLINATION    = 41.4756
RA_OF_ASC_NODE = 121.3198
ARG_OF_PERICENTER = 147.7697
MEAN_ANOMALY   = 212.3443

EPHEMERIS_TYPE = 0
CLASSIFICATION_TYPE = U
NORAD_CAT_ID   = 66515
ELEMENT_SET_NO = 999
REV_AT_EPOCH   = 174
BSTAR          = .34921E-3
MEAN_MOTION_DOT = .30333E-3
MEAN_MOTION_DDOT = 0

